CENTAURI-1              
1 43809U 18099BD  26204.56203113  .00005684  00000+0  29292-3 0  9995
2 43809  97.4202 255.5032 0013791 194.5593 165.5245 15.16685956418013
CENTAURI-6              
1 59451U 24066K   26204.68517891  .00005267  00000+0  37129-3 0  9995
2 59451  45.6066  63.8399 0001845 264.9531  95.1142 15.06097075125627
CENTAURI-7              
1 62708U 25009DD  26204.60141634  .00002528  00000+0  21906-3 0  9995
2 62708  97.7081 284.4175 0002100  93.3311 266.8151 14.98004556 82912
CENTAURI-8              
1 62714U 25009DK  26204.49676398  .00003607  00000+0  31065-3 0  9995
2 62714  97.7030 284.1281 0002688  73.7509 286.4008 14.97963664 82912
