{"fetched_at":"2026-07-24T07:06:24.210Z","source":"https://celestrak.org/NORAD/elements/gp.php?NAME=CENTAURI&FORMAT=JSON","constellation":"myriota","records":[{"OBJECT_NAME":"CENTAURI-1","OBJECT_ID":"2018-099BD","EPOCH":"2026-07-23T13:29:19.489632","CLASSIFICATION_TYPE":"U","MEAN_MOTION":15.16685956,"ECCENTRICITY":0.0013791,"INCLINATION":97.4202,"RA_OF_ASC_NODE":255.5032,"ARG_OF_PERICENTER":194.5593,"MEAN_ANOMALY":165.5245,"EPHEMERIS_TYPE":0,"NORAD_CAT_ID":43809,"ELEMENT_SET_NO":999,"REV_AT_EPOCH":41801,"BSTAR":0.00029292,"MEAN_MOTION_DOT":0.00005684,"MEAN_MOTION_DDOT":0},{"OBJECT_NAME":"CENTAURI-6","OBJECT_ID":"2024-066K","EPOCH":"2026-07-23T16:26:39.457824","CLASSIFICATION_TYPE":"U","MEAN_MOTION":15.06097075,"ECCENTRICITY":0.0001845,"INCLINATION":45.6066,"RA_OF_ASC_NODE":63.8399,"ARG_OF_PERICENTER":264.9531,"MEAN_ANOMALY":95.1142,"EPHEMERIS_TYPE":0,"NORAD_CAT_ID":59451,"ELEMENT_SET_NO":999,"REV_AT_EPOCH":12562,"BSTAR":0.00037129,"MEAN_MOTION_DOT":0.00005267,"MEAN_MOTION_DDOT":0},{"OBJECT_NAME":"CENTAURI-7","OBJECT_ID":"2025-009DD","EPOCH":"2026-07-23T14:26:02.371776","CLASSIFICATION_TYPE":"U","MEAN_MOTION":14.98004556,"ECCENTRICITY":0.00021,"INCLINATION":97.7081,"RA_OF_ASC_NODE":284.4175,"ARG_OF_PERICENTER":93.3311,"MEAN_ANOMALY":266.8151,"EPHEMERIS_TYPE":0,"NORAD_CAT_ID":62708,"ELEMENT_SET_NO":999,"REV_AT_EPOCH":8291,"BSTAR":0.00021906,"MEAN_MOTION_DOT":0.00002528,"MEAN_MOTION_DDOT":0},{"OBJECT_NAME":"CENTAURI-8","OBJECT_ID":"2025-009DK","EPOCH":"2026-07-23T11:55:20.407872","CLASSIFICATION_TYPE":"U","MEAN_MOTION":14.97963664,"ECCENTRICITY":0.0002688,"INCLINATION":97.703,"RA_OF_ASC_NODE":284.1281,"ARG_OF_PERICENTER":73.7509,"MEAN_ANOMALY":286.4008,"EPHEMERIS_TYPE":0,"NORAD_CAT_ID":62714,"ELEMENT_SET_NO":999,"REV_AT_EPOCH":8291,"BSTAR":0.00031065,"MEAN_MOTION_DOT":0.00003607,"MEAN_MOTION_DDOT":0}]}
